{"version": 0.6, "generator": "Overpass API 0.7.61.5 4133829e", "osm3s": {"timestamp_osm_base": "2023-10-04T21:42:02Z", "copyright": "The data included in this document is from www.openstreetmap.org. The data is made available under ODbL."}, "elements": [{"type": "node", "id": 265643966, "lat": 51.1213079, "lon": 17.0123273, "tags": {"amenity": "vending_machine", "vending": "public_transport_tickets"}}, {"type": "node", "id": 369029509, "lat": 51.0826746, "lon": 17.0490936, "tags": {"amenity": "vending_machine", "check_date": "2021-07-03", "vending": "public_transport_tickets"}}, {"type": "node", "id": 1213165684, "lat": 51.1117676, "lon": 17.0223954, "tags": {"amenity": "vending_machine", "check_date": "2021-08-25", "payment:coins": "yes", "payment:credit_cards": "yes", "payment:electronic_purses": "yes", "payment:notes": "yes", "ref": "548", "vending": "public_transport_tickets"}}, {"type": "node", "id": 1213165714, "lat": 51.1121785, "lon": 17.0207426, "tags": {"amenity": "vending_machine", "payment:coins": "yes", "payment:credit_cards": "yes", "payment:electronic_purses": "yes", "payment:notes": "yes", "ref": "538", "vending": "public_transport_tickets"}}, {"type": "node", "id": 1737437042, "lat": 51.0972639, "lon": 17.036046, "tags": {"amenity": "vending_machine", "network": "MPK Wroc\u0142aw", "operator": "Mennica Polska", "payment:account_cards": "yes", "payment:coins": "yes", "payment:credit_cards": "yes", "payment:debit_cards": "yes", "payment:electronic_purses": "yes", "payment:notes": "yes", "ref": "595", "vending": "public_transport_tickets"}}, {"type": "node", "id": 1895917908, "lat": 51.1126028, "lon": 17.0121095, "tags": {"amenity": "vending_machine", "vending": "public_transport_tickets"}}, {"type": "node", "id": 1964452468, "lat": 51.1384642, "lon": 17.058565, "tags": {"amenity": "vending_machine", "payment:account_cards": "yes", "payment:credit_cards": "yes", "payment:debit_cards": "yes", "payment:electronic_purses": "yes", "payment:notes": "yes", "ref": "524", "vending": "public_transport_tickets"}}, {"type": "node", "id": 2451193376, "lat": 51.0892346, "lon": 17.0342053, "tags": {"amenity": "vending_machine", "operator": "Mennica Polska", "payment:coins": "yes", "payment:credit_cards": "yes", "payment:debit_cards": "yes", "payment:electronic_purses": "yes", "ref": "513", "vending": "public_transport_tickets"}}, {"type": "node", "id": 2451193377, "lat": 51.0904597, "lon": 17.0332716, "tags": {"amenity": "vending_machine", "operator": "Mennica Polska", "payment:coins": "yes", "payment:credit_cards": "yes", "payment:debit_cards": "yes", "payment:electronic_purses": "yes", "ref": "573", "vending": "public_transport_tickets"}}, {"type": "node", "id": 2462216969, "lat": 51.1112258, "lon": 16.878008, "tags": {"amenity": "vending_machine", "barrier": "lift_gate", "bicycle": "yes", "foot": "no", "motorcar": "yes", "motorcycle": "yes", "vending": "parking_tickets"}}, {"type": "node", "id": 2723884688, "lat": 51.1354936, "lon": 17.0365246, "tags": {"amenity": "vending_machine", "vending": "public_transport_tickets"}}, {"type": "node", "id": 2723887354, "lat": 51.1370775, "lon": 17.0305543, "tags": {"amenity": "vending_machine", "vending": "public_transport_tickets"}}, {"type": "node", "id": 2813469888, "lat": 51.0908873, "lon": 17.0176915, "tags": {"amenity": "vending_machine", "vending": "public_transport_tickets"}}, {"type": "node", "id": 2892127935, "lat": 51.1042486, "lon": 17.0220623, "tags": {"amenity": "vending_machine", "check_date": "2023-07-18", "vending": "public_transport_tickets"}}, {"type": "node", "id": 2892313562, "lat": 51.1002849, "lon": 17.0394427, "tags": {"amenity": "vending_machine", "check_date": "2023-07-29", "payment:account_cards": "yes", "payment:coins": "yes", "ref": "P-191", "source": "photograph", "vending": "parking_tickets"}}, {"type": "node", "id": 2892313563, "lat": 51.100744, "lon": 17.039571, "tags": {"amenity": "vending_machine", "check_date": "2023-07-29", "payment:account_cards": "yes", "payment:coins": "yes", "source": "photograph", "vending": "parking_tickets"}}, {"type": "node", "id": 2892313564, "lat": 51.1044184, "lon": 17.0422935, "tags": {"amenity": "vending_machine", "payment:account_cards": "yes", "payment:coins": "yes", "ref": "174", "source": "photograph", "source_ref": "https://www.flickr.com/photos/124589265@N07/14317203473/", "vending": "parking_tickets"}}, {"type": "node", "id": 2892313565, "lat": 51.1051851, "lon": 17.0429836, "tags": {"amenity": "vending_machine", "check_date": "2021-12-06", "payment:account_cards": "yes", "payment:coins": "yes", "ref": "176", "source": "photograph", "source_ref": "https://www.flickr.com/photos/124589265@N07/14295061032/", "vending": "parking_tickets"}}, {"type": "node", "id": 2990991890, "lat": 51.1306215, "lon": 16.9644385, "tags": {"amenity": "vending_machine", "drink:raw_milk": "yes", "name": "Mlekomat", "payment:cash": "yes", "vending": "milk"}}, {"type": "node", "id": 3167829996, "lat": 51.115128, "lon": 16.9985345, "tags": {"amenity": "vending_machine", "description": "automat kolejowy - bilety Przewozy Regionalne, PKP Intercity / TLK", "payment:coins": "yes", "payment:credit_cards": "yes", "payment:notes": "yes", "vending": "public_transport_tickets"}}, {"type": "node", "id": 3177473503, "lat": 51.0897663, "lon": 16.9755156, "tags": {"amenity": "vending_machine", "vending": "drinks"}}, {"type": "node", "id": 3224667107, "lat": 51.1152753, "lon": 17.0407456, "tags": {"amenity": "vending_machine", "check_date": "2023-02-14", "vending": "parking_tickets"}}, {"type": "node", "id": 3560520851, "lat": 51.1149039, "lon": 17.0674999, "tags": {"amenity": "vending_machine", "vending": "public_transport_tickets"}}, {"type": "node", "id": 3626398989, "lat": 51.0990315, "lon": 17.0368035, "tags": {"amenity": "vending_machine", "check_date": "2023-09-17", "level": "0", "operator": "Avista sp. z.o.o.", "payment:cards": "yes", "payment:cash": "yes", "ref": "1204", "vending": "public_transport_tickets"}}, {"type": "node", "id": 3626505736, "lat": 51.0975882, "lon": 17.0360549, "tags": {"amenity": "vending_machine", "check_date": "2023-09-17", "operator": "Avista sp. z o.o.", "payment:cash": "yes", "payment:debit_cards": "yes", "ref": "1209", "vending": "public_transport_tickets"}}, {"type": "node", "id": 3626505737, "lat": 51.0976026, "lon": 17.0360576, "tags": {"amenity": "vending_machine", "check_date": "2023-09-17", "operator": "Avista sp. z o.o.", "payment:cash": "yes", "payment:debit_cards": "yes", "ref": "1205", "vending": "public_transport_tickets"}}, {"type": "node", "id": 4004463920, "lat": 51.1056612, "lon": 17.0783777, "tags": {"amenity": "vending_machine", "payment:coins": "yes", "payment:mastercard": "yes", "payment:notes": "yes", "payment:visa": "yes", "payment:visa_debit": "yes", "payment:visa_electron": "yes", "vending": "parking_tickets"}}, {"type": "node", "id": 4004463935, "lat": 51.1065044, "lon": 17.0788704, "tags": {"amenity": "vending_machine", "payment:coins": "yes", "payment:mastercard": "yes", "payment:notes": "yes", "payment:visa": "yes", "payment:visa_debit": "yes", "payment:visa_electron": "yes", "vending": "parking_tickets"}}, {"type": "node", "id": 4092209252, "lat": 51.099166, "lon": 17.03465, "tags": {"amenity": "vending_machine", "vending": "public_transport_tickets"}}, {"type": "node", "id": 4092236999, "lat": 51.0996386, "lon": 17.0361268, "tags": {"amenity": "vending_machine", "check_date": "2022-09-24", "payment:cards": "yes", "payment:cash": "yes", "vending": "train_tickets"}}, {"type": "node", "id": 4437915124, "lat": 51.1487894, "lon": 17.0436264, "tags": {"amenity": "vending_machine", "name": "Kasa parkingowa", "vending": "parking_tickets"}}, {"type": "node", "id": 4573949967, "lat": 51.1095928, "lon": 16.8813803, "tags": {"amenity": "vending_machine", "source": "survey", "vending": "toll"}}, {"type": "node", "id": 4589393846, "lat": 51.0746115, "lon": 17.0312387, "tags": {"amenity": "vending_machine", "vending": "toll"}}, {"type": "node", "id": 5045474675, "lat": 51.101089, "lon": 17.0295804, "tags": {"amenity": "vending_machine", "check_date": "2022-09-01", "ref": "553", "vending": "public_transport_tickets"}}, {"type": "node", "id": 5365917202, "lat": 51.1077792, "lon": 17.0392205, "tags": {"amenity": "vending_machine", "vending": "public_transport_tickets"}}, {"type": "node", "id": 5365917203, "lat": 51.1069837, "lon": 17.0330037, "tags": {"amenity": "vending_machine", "ref": "561", "vending": "public_transport_tickets"}}, {"type": "node", "id": 5365917204, "lat": 51.1080866, "lon": 17.0389212, "tags": {"amenity": "vending_machine", "layer": "-1", "level": "-1", "location": "underground", "vending": "public_transport_tickets"}}, {"type": "node", "id": 5371143459, "lat": 51.0998755, "lon": 17.0352799, "tags": {"amenity": "vending_machine", "check_date": "2022-09-14", "vending": "public_transport_tickets"}}, {"type": "node", "id": 5371143481, "lat": 51.1017991, "lon": 17.0345588, "tags": {"amenity": "vending_machine", "name": "168", "vending": "parking_tickets"}}, {"type": "node", "id": 5371143483, "lat": 51.1018503, "lon": 17.036386, "tags": {"amenity": "vending_machine", "check_date": "2022-02-26", "name": "169", "vending": "parking_tickets"}}, {"type": "node", "id": 5371143508, "lat": 51.1037918, "lon": 17.0369489, "tags": {"amenity": "vending_machine", "name": "581", "vending": "public_transport_tickets"}}, {"type": "node", "id": 5371143556, "lat": 51.1021252, "lon": 17.0368871, "tags": {"amenity": "vending_machine", "check_date": "2022-10-15", "name": "095", "vending": "parking_tickets"}}, {"type": "node", "id": 5485279965, "lat": 51.0999986, "lon": 17.0255169, "tags": {"amenity": "vending_machine", "description": "P\u0142atno\u015b\u0107 bilonem i banknotami do 50 PLN", "payment:cash": "yes", "payment:coins": "yes", "vending": "parking_tickets"}}, {"type": "node", "id": 5485280540, "lat": 51.1002943, "lon": 17.0244015, "tags": {"amenity": "vending_machine", "description": "P\u0142atno\u015b\u0107 bilonem i banknotami do 50 PLN", "payment:cash": "yes", "payment:coins": "yes", "vending": "parking_tickets"}}, {"type": "node", "id": 5534686767, "lat": 51.116343, "lon": 17.0558601, "tags": {"amenity": "vending_machine", "ref": "588", "vending": "public_transport_tickets"}}, {"type": "node", "id": 5534686768, "lat": 51.1156083, "lon": 17.0606669, "tags": {"amenity": "vending_machine", "check_date": "2022-11-14", "ref": "654", "vending": "public_transport_tickets"}}, {"type": "node", "id": 5593153229, "lat": 51.1096583, "lon": 16.8824597, "tags": {"amenity": "vending_machine", "vending": "toll"}}, {"type": "node", "id": 5593153230, "lat": 51.1106012, "lon": 16.8792955, "tags": {"amenity": "vending_machine", "vending": "toll"}}, {"type": "node", "id": 5612158123, "lat": 51.0912705, "lon": 16.9861264, "tags": {"amenity": "vending_machine", "vending": "public_transport_tickets"}}, {"type": "node", "id": 5686072418, "lat": 51.1224731, "lon": 17.0305844, "tags": {"amenity": "vending_machine", "vending": "public_transport_tickets"}}, {"type": "node", "id": 6023249861, "lat": 51.1104719, "lon": 16.8843757, "tags": {"amenity": "vending_machine", "vending": "toll"}}, {"type": "node", "id": 6023277541, "lat": 51.1095906, "lon": 16.8813895, "tags": {"amenity": "vending_machine", "source": "survey", "vending": "toll"}}, {"type": "node", "id": 6032100485, "lat": 51.0971565, "lon": 17.0360223, "tags": {"amenity": "vending_machine", "network": "MPK Wroc\u0142aw", "operator": "Mennica Polska", "payment:account_cards": "yes", "payment:coins": "yes", "payment:credit_cards": "yes", "payment:debit_cards": "yes", "payment:electronic_purses": "yes", "payment:notes": "yes", "ref": "535", "vending": "public_transport_tickets"}}, {"type": "node", "id": 6055882857, "lat": 51.1049216, "lon": 17.0485556, "tags": {"amenity": "vending_machine", "check_date": "2023-06-08", "vending": "public_transport_tickets"}}, {"type": "node", "id": 6090402519, "lat": 51.1137569, "lon": 17.10434, "tags": {"amenity": "vending_machine", "vending": "public_transport_tickets"}}, {"type": "node", "id": 6126268367, "lat": 51.1091854, "lon": 17.0252334, "tags": {"amenity": "vending_machine", "vending": "parking_tickets"}}, {"type": "node", "id": 6310613462, "lat": 51.1127838, "lon": 17.0395939, "tags": {"amenity": "vending_machine", "vending": "public_transport_tickets"}}, {"type": "node", "id": 6349483543, "lat": 51.109705, "lon": 17.0651703, "tags": {"amenity": "vending_machine", "check_date": "2023-06-27", "vending": "public_transport_tickets"}}, {"type": "node", "id": 6514129080, "lat": 51.099196, "lon": 17.0471145, "tags": {"amenity": "vending_machine", "check_date": "2021-06-26", "vending": "toll"}}, {"type": "node", "id": 6563287845, "lat": 51.1326143, "lon": 16.9570484, "tags": {"amenity": "vending_machine", "check_date": "2023-07-17", "operator": "Mennica Polska", "payment:coins": "yes", "payment:mastercard": "yes", "payment:notes": "yes", "payment:visa": "yes", "ref": "525", "vending": "public_transport_tickets"}}, {"type": "node", "id": 6943859806, "lat": 51.1407342, "lon": 17.0244745, "tags": {"amenity": "vending_machine", "check_date": "2022-05-22", "vending": "milk"}}, {"type": "node", "id": 7093159603, "lat": 51.063948, "lon": 16.9794613, "tags": {"amenity": "vending_machine", "ref": "598", "vending": "public_transport_tickets"}}, {"type": "node", "id": 7095855840, "lat": 51.0656755, "lon": 16.9877765, "tags": {"amenity": "vending_machine", "ref": "643", "vending": "public_transport_tickets"}}, {"type": "node", "id": 7157314085, "lat": 51.1746094, "lon": 17.0222683, "tags": {"amenity": "vending_machine", "description": "wysy\u0142komat", "operator": "Asapon Sp. z o.o", "vending": "parcel_mail_in", "website": "https://wysylkomaty.pl/"}}, {"type": "node", "id": 7204836541, "lat": 51.1146889, "lon": 17.1251208, "tags": {"amenity": "vending_machine", "fee": "no", "image": "https://d-pt.ppstatic.pl/k/r/1/4f/bd/5e3540a40d4af_p.jpg", "name": "Kacze smaczki", "vending": "duck_food"}}, {"type": "node", "id": 7252904873, "lat": 51.130223, "lon": 17.03978, "tags": {"amenity": "vending_machine", "vending": "parking_tickets"}}, {"type": "node", "id": 7397958216, "lat": 51.1065636, "lon": 17.1045065, "tags": {"amenity": "vending_machine", "covered": "no", "vending": "public_transport_tickets"}}, {"type": "node", "id": 7481999093, "lat": 51.0904472, "lon": 17.0332623, "tags": {"amenity": "vending_machine", "vending": "parking_tickets"}}, {"type": "node", "id": 7504468804, "lat": 51.1188671, "lon": 17.0147954, "tags": {"amenity": "vending_machine", "vending": "public_transport_tickets"}}, {"type": "node", "id": 7504528185, "lat": 51.1211589, "lon": 17.0149566, "tags": {"amenity": "vending_machine", "indoor": "yes", "name": "soczewkomat", "operator": "Soczewkomaty.pl", "payment:mastercard": "yes", "payment:visa": "yes", "vending": "contact_lenses", "website": "https://soczewkomaty.pl/"}}, {"type": "node", "id": 7581478484, "lat": 51.0925603, "lon": 17.0312256, "tags": {"amenity": "vending_machine", "vending": "surgical_masks", "website": "https://www.maseczkom.at"}}, {"type": "node", "id": 7618080842, "lat": 51.0890623, "lon": 16.9997018, "tags": {"amenity": "vending_machine", "vending": "perfume;surgical_masks"}}, {"type": "node", "id": 7618089229, "lat": 51.1151023, "lon": 17.0736812, "tags": {"amenity": "vending_machine", "vending": "cbd"}}, {"type": "node", "id": 7859136658, "lat": 51.0941296, "lon": 16.981645, "tags": {"amenity": "vending_machine", "indoor": "yes", "level": "0", "location": "indoor", "operator": "Canapharm", "vending": "cbd;surgical_masks", "website": "http://weedpoint.pl"}}, {"type": "node", "id": 7908429471, "lat": 51.0749704, "lon": 17.0070257, "tags": {"amenity": "vending_machine", "ref": "567", "vending": "public_transport_tickets"}}, {"type": "node", "id": 7918460411, "lat": 51.0996291, "lon": 17.0361239, "tags": {"amenity": "vending_machine", "check_date": "2022-09-24", "payment:cards": "yes", "payment:cash": "yes", "vending": "train_tickets"}}, {"type": "node", "id": 7918460412, "lat": 51.0996204, "lon": 17.0361213, "tags": {"amenity": "vending_machine", "check_date": "2022-09-24", "payment:cards": "yes", "payment:cash": "yes", "vending": "train_tickets"}}, {"type": "node", "id": 8116678068, "lat": 51.0815851, "lon": 16.9955237, "tags": {"amenity": "vending_machine", "check_date": "2023-08-14", "name": "Wiewi\u00f3rka Cafe", "vending": "coffee;drinks;sweets"}}, {"type": "node", "id": 8243595238, "lat": 51.0880414, "lon": 16.9975955, "tags": {"amenity": "vending_machine", "description": "soczewkomat", "location": "obok Reserved i wej\u015bcia do toalet", "vending": "contact_lenses", "website": "https://soczewkomaty.pl/znajdz-swoj-soczewkomat/wroclaw"}}, {"type": "node", "id": 8243595239, "lat": 51.0878096, "lon": 16.99884, "tags": {"amenity": "vending_machine", "vending": "cbd"}}, {"type": "node", "id": 8432166407, "lat": 51.1121727, "lon": 17.0596587, "tags": {"amenity": "vending_machine", "vending": "surgical_masks;hand_sanitizers;water"}}, {"type": "node", "id": 8525656564, "lat": 51.1037894, "lon": 17.0318601, "tags": {"amenity": "vending_machine", "level": "0", "vending": "drinks"}}, {"type": "node", "id": 8766260106, "lat": 51.1135471, "lon": 17.1210652, "tags": {"amenity": "vending_machine", "vending": "public_transport_tickets"}}, {"type": "node", "id": 8989804117, "lat": 51.0803572, "lon": 17.0626731, "tags": {"amenity": "vending_machine", "vending": "public_transport_tickets"}}, {"type": "node", "id": 9127158756, "lat": 51.1138827, "lon": 17.0467175, "tags": {"amenity": "vending_machine", "image": "https://photos.app.goo.gl/F1WSSkTf4D4S7M8b7", "name": "062 Plac Katedralny", "payment:coins": "yes", "payment:mastercard": "yes", "payment:visa": "yes", "ref": "062", "vending": "parking_tickets"}}, {"type": "node", "id": 9167656795, "lat": 51.1145348, "lon": 17.0544255, "tags": {"amenity": "vending_machine", "covered": "no", "payment:blik": "yes", "payment:coins": "yes", "payment:credit_cards": "yes", "ref": "P-107", "vending": "parking_tickets"}}, {"type": "node", "id": 9198217747, "lat": 51.1142832, "lon": 17.053698, "tags": {"amenity": "vending_machine", "covered": "no", "payment:blik": "yes", "payment:coins": "yes", "payment:credit_cards": "yes", "ref": "P-108", "vending": "parking_tickets"}}, {"type": "node", "id": 9202793003, "lat": 51.1137661, "lon": 17.0538869, "tags": {"amenity": "vending_machine", "brand": "Parkeon", "payment:coins": "yes", "payment:credit_cards": "yes", "ref": "P-104", "vending": "parking_tickets"}}, {"type": "node", "id": 9202793004, "lat": 51.1139035, "lon": 17.0551492, "tags": {"amenity": "vending_machine", "brand": "Parkeon", "payment:coins": "yes", "payment:credit_cards": "yes", "ref": "P-103", "vending": "parking_tickets"}}, {"type": "node", "id": 9219191927, "lat": 51.1004662, "lon": 17.0310948, "tags": {"amenity": "vending_machine", "brand": "Parkeon", "payment:coins": "yes", "payment:credit_cards": "yes", "ref": "P-298", "vending": "parking_tickets"}}, {"type": "node", "id": 9238801519, "lat": 51.0995826, "lon": 17.0313574, "tags": {"amenity": "vending_machine", "brand": "Parkeon", "payment:coins": "yes", "payment:credit_cards": "yes", "ref": "P-267", "vending": "parking_tickets"}}, {"type": "node", "id": 9238801520, "lat": 51.0993773, "lon": 17.0321972, "tags": {"amenity": "vending_machine", "brand": "Parkeon", "payment:coins": "yes", "payment:credit_cards": "yes", "ref": "P-268", "vending": "parking_tickets"}}, {"type": "node", "id": 9238801521, "lat": 51.1110071, "lon": 17.0362073, "tags": {"amenity": "vending_machine", "brand": "Parkeon", "payment:coins": "yes", "payment:credit_cards": "yes", "ref": "P-002", "vending": "parking_tickets"}}, {"type": "node", "id": 9264137535, "lat": 51.1019798, "lon": 17.034805, "tags": {"amenity": "vending_machine", "ref": "P-219", "vending": "parking_tickets"}}, {"type": "node", "id": 9280696229, "lat": 51.1131161, "lon": 17.1210693, "tags": {"amenity": "vending_machine", "vending": "parking_tickets"}}, {"type": "node", "id": 9280696230, "lat": 51.1130358, "lon": 17.1205363, "tags": {"amenity": "vending_machine", "vending": "parking_tickets"}}, {"type": "node", "id": 9295646736, "lat": 51.1133486, "lon": 17.0560685, "tags": {"amenity": "vending_machine", "ref": "P-100", "vending": "parking_tickets"}}, {"type": "node", "id": 9467340051, "lat": 51.1172892, "lon": 17.0415673, "tags": {"amenity": "vending_machine", "vending": "public_transport_tickets"}}, {"type": "node", "id": 9610688188, "lat": 51.1737923, "lon": 16.9942478, "tags": {"amenity": "vending_machine", "covered": "no", "indoor": "no", "level": "0", "payment:cards": "yes", "payment:cash": "yes", "ref": "655", "vending": "public_transport_tickets"}}, {"type": "node", "id": 9749764510, "lat": 51.1009943, "lon": 17.0555015, "tags": {"amenity": "vending_machine", "fee": "no", "name": "Kacze smaczki", "vending": "duck_food"}}, {"type": "node", "id": 9888095228, "lat": 51.1109605, "lon": 17.028605, "tags": {"amenity": "vending_machine", "barrier": "gate", "vending": "parking_tickets"}}, {"type": "node", "id": 9986318005, "lat": 51.1122096, "lon": 16.9994745, "tags": {"amenity": "vending_machine", "ref": "661", "vending": "public_transport_tickets"}}, {"type": "node", "id": 9991681242, "lat": 51.0840946, "lon": 17.010566, "tags": {"amenity": "vending_machine", "ref": "584", "vending": "public_transport_tickets"}}, {"type": "node", "id": 9995641486, "lat": 51.1020666, "lon": 17.0294585, "tags": {"amenity": "vending_machine", "check_date": "2022-09-02", "vending": "public_transport_tickets"}}, {"type": "node", "id": 9995641487, "lat": 51.1037847, "lon": 17.0306543, "tags": {"amenity": "vending_machine", "check_date": "2022-09-02", "vending": "public_transport_tickets"}}, {"type": "node", "id": 10012142883, "lat": 51.1079445, "lon": 17.0266622, "tags": {"amenity": "vending_machine", "ref": "611", "vending": "public_transport_tickets"}}, {"type": "node", "id": 10014142365, "lat": 51.110566, "lon": 17.0419725, "tags": {"amenity": "vending_machine", "payment:cash": "yes", "payment:credit_cards": "yes", "vending": "parking_tickets"}}, {"type": "node", "id": 10020829881, "lat": 51.111115, "lon": 17.042932, "tags": {"amenity": "vending_machine", "source": "survey", "vending": "parking_tickets"}}, {"type": "node", "id": 10020829882, "lat": 51.1089765, "lon": 17.0425695, "tags": {"amenity": "vending_machine", "source": "survey", "vending": "parking_tickets"}}, {"type": "node", "id": 10020829887, "lat": 51.1110143, "lon": 17.0387396, "tags": {"amenity": "vending_machine", "source": "survey", "vending": "parking_tickets"}}, {"type": "node", "id": 10020829888, "lat": 51.1111112, "lon": 17.0376705, "tags": {"amenity": "vending_machine", "source": "survey", "vending": "parking_tickets"}}, {"type": "node", "id": 10052225119, "lat": 51.0713292, "lon": 17.0000437, "tags": {"amenity": "vending_machine", "ref": "642", "vending": "public_transport_tickets"}}, {"type": "node", "id": 10067447716, "lat": 51.1123602, "lon": 17.0589309, "tags": {"amenity": "vending_machine", "fixme": "position", "level": "2", "payment:coins": "yes", "payment:credit_cards": "yes", "payment:debit_cards": "yes", "ref": "15801", "vending": "drinks"}}, {"type": "node", "id": 10073490986, "lat": 51.159954, "lon": 17.1340328, "tags": {"amenity": "vending_machine", "ref": "627", "vending": "public_transport_tickets"}}, {"type": "node", "id": 10121901439, "lat": 51.0957572, "lon": 16.9888441, "tags": {"amenity": "vending_machine", "vending": "parking_tickets"}}, {"type": "node", "id": 10130615645, "lat": 51.0960304, "lon": 16.9919211, "tags": {"amenity": "vending_machine", "bin": "no", "check_date": "2022-10-26", "fee": "no", "vending": "excrement_bags"}}, {"type": "node", "id": 10130615646, "lat": 51.0956605, "lon": 16.9907784, "tags": {"amenity": "vending_machine", "bin": "yes", "check_date": "2022-10-26", "fee": "no", "vending": "excrement_bags"}}, {"type": "node", "id": 10139256123, "lat": 51.1089354, "lon": 17.0259608, "tags": {"amenity": "vending_machine", "description": "Inside Central Caf\u00e9", "location": "indoor", "operator": "Fast energy", "ref": "489286", "vending": "power_banks"}}, {"type": "node", "id": 10211795203, "lat": 51.1265229, "lon": 16.9900687, "tags": {"amenity": "vending_machine", "name": "Ziemniakomat", "vending": "potato"}}, {"type": "node", "id": 10218252508, "lat": 51.1170034, "lon": 17.0510569, "tags": {"amenity": "vending_machine", "payment:american_express": "yes", "payment:coins": "yes", "payment:contactless": "yes", "payment:maestro": "yes", "payment:mastercard": "yes", "payment:notes": "no", "payment:visa": "yes", "ref": "521", "vending": "public_transport_tickets"}}, {"type": "node", "id": 10638180953, "lat": 51.1002146, "lon": 17.0391338, "tags": {"amenity": "vending_machine", "check_date": "2023-02-10", "covered": "no", "indoor": "no", "note": "Biletomat Urbancard - bilety komunikacji miejskiej", "source": "survey", "vending": "public_transport_tickets"}}, {"type": "node", "id": 10642649728, "lat": 51.1633736, "lon": 16.8965531, "tags": {"amenity": "vending_machine", "check_date": "2023-02-10", "covered": "no", "description": "Biletomat Urbancard - bilety komunikacji miejskiej", "indoor": "no", "source": "survey", "vending": "public_transport_tickets"}}, {"type": "node", "id": 10647749980, "lat": 51.1408312, "lon": 16.886784, "tags": {"amenity": "vending_machine", "covered": "no", "indoor": "no", "note": "Biletomat Urbancard - bilety komunikacji miejskiej", "source": "survey", "vending": "public_transport_tickets"}}, {"type": "node", "id": 10649376144, "lat": 51.1433919, "lon": 16.8892435, "tags": {"amenity": "vending_machine", "check_date": "2023-02-11", "covered": "no", "description": "Biletomat Urbancard - bilety komunikacji miejskiej", "indoor": "no", "payment:mastercard": "yes", "payment:visa": "yes", "source": "survey", "vending": "public_transport_tickets"}}, {"type": "node", "id": 10649399103, "lat": 51.1446734, "lon": 16.8715858, "tags": {"amenity": "vending_machine", "check_date": "2023-02-11", "indoor": "no", "source": "survey", "vending": "public_transport_tickets"}}, {"type": "node", "id": 10693034655, "lat": 51.0898281, "lon": 17.0270361, "tags": {"amenity": "vending_machine", "check_date": "2023-02-25", "covered": "no", "description": "P\u0142atno\u015b\u0107 got\u00f3wka zablokowana z powodu wandalizmu. Informacja na automacie", "fixme": "Uzupe\u0142ni\u0107 jakie karty s\u0105 przyjmowane. Jest informacja.", "indoor": "no", "opening_hours": "24/7", "payment:cash": "no", "payment:mastercard": "yes", "payment:visa": "yes", "source": "survey", "vending": "public_transport_tickets"}}, {"type": "node", "id": 10734167893, "lat": 51.0795563, "lon": 16.993036, "tags": {"amenity": "vending_machine", "vending": "public_transport_tickets"}}, {"type": "node", "id": 10864262872, "lat": 51.0864848, "lon": 17.0130761, "tags": {"amenity": "vending_machine", "location": "indoor", "operator": "Fast energy", "vending": "power_banks"}}, {"type": "node", "id": 11102056062, "lat": 51.1041772, "lon": 17.0804627, "tags": {"amenity": "vending_machine", "vending": "parking_tickets"}}, {"type": "node", "id": 11196070580, "lat": 51.0970909, "lon": 17.0318219, "tags": {"amenity": "vending_machine", "operator": "Park in", "vending": "parking_tickets"}}, {"type": "node", "id": 11196092617, "lat": 51.0733156, "lon": 17.0376284, "tags": {"amenity": "vending_machine", "food": "potatoes", "name": "Ziemniakomat", "vending": "food"}}, {"type": "node", "id": 11197980434, "lat": 51.0975563, "lon": 17.0362633, "tags": {"amenity": "vending_machine", "check_date": "2023-09-17", "description": "videomat biletowy Polregio", "level": "0", "payment:debit_cards": "yes", "ref": "1103", "vending": "public_transport_tickets"}}, {"type": "node", "id": 11197980435, "lat": 51.0986891, "lon": 17.0362845, "tags": {"amenity": "vending_machine", "check_date": "2023-09-17", "description": "biletomat kolejowy", "level": "0", "operator": "Avista sp. z o.o.", "payment:cash": "yes", "payment:debit_cards": "yes", "ref": "1210", "vending": "public_transport_tickets"}}, {"type": "node", "id": 11197980436, "lat": 51.0986911, "lon": 17.0362728, "tags": {"amenity": "vending_machine", "check_date": "2023-09-17", "description": "biletomat kolejowy", "level": "0", "operator": "Avista sp. z o.o.", "payment:cash": "yes", "payment:debit_cards": "yes", "ref": "1203", "vending": "public_transport_tickets"}}, {"type": "node", "id": 11198022837, "lat": 51.098687, "lon": 17.0362966, "tags": {"amenity": "vending_machine", "check_date": "2023-09-17", "description": "biletomat kolejowy KD", "level": "0", "operator": "Koleje Dolno\u015bl\u0105skie S.A.", "payment:contactless": "yes", "payment:debit_cards": "yes", "ref": "1742", "vending": "public_transport_tickets"}}]}